{"type": "FeatureCollection", "features": [ {"type": "Feature", "properties": {"norad_id": 34529, "name": "IRIDIUM 33 DEB", "group": "iridium-33-debris", "lat": 23.520064687196314, "lon": 37.96009342251214, "alt_km": 759.0746772448729, "timestamp": "2025-12-10T11:33:53.769413+00:00", "meta": {"OBJECT_NAME": "IRIDIUM 33 DEB", "OBJECT_ID": "1997-051HW", "EPOCH": "2025-12-10T03:07:14.414880", "MEAN_MOTION": 14.40612493, "ECCENTRICITY": 0.0004471, "INCLINATION": 86.3643, "RA_OF_ASC_NODE": 36.5243, "ARG_OF_PERICENTER": 185.8587, "MEAN_ANOMALY": 174.2561, "EPHEMERIS_TYPE": 0, "CLASSIFICATION_TYPE": "U", "NORAD_CAT_ID": 34529, "ELEMENT_SET_NO": 999, "REV_AT_EPOCH": 88104, "BSTAR": 0.00017155, "MEAN_MOTION_DOT": 5.67e-06, "MEAN_MOTION_DDOT": 0}, "tle": {"line1": "1 34529U 97051HW  25344.13002795  .00000567  00000+0  17155-3 0  9999", "line2": "2 34529  86.3643  36.5243 0004471 185.8587 174.2561 14.40612493881047"}}, "geometry": {"type": "Point", "coordinates": [37.96009342251214, 23.520064687196314]}}, {"type": "Feature", "properties": {"norad_id": 34538, "name": "IRIDIUM 33 DEB", "group": "iridium-33-debris", "lat": -24.12498718230184, "lon": -171.78422635087188, "alt_km": 771.0911688319084, "timestamp": "2025-12-10T11:33:53.769423+00:00", "meta": {"OBJECT_NAME": "IRIDIUM 33 DEB", "OBJECT_ID": "1997-051JF", "EPOCH": "2025-12-10T02:34:36.380064", "MEAN_MOTION": 14.42622589, "ECCENTRICITY": 0.0033099, "INCLINATION": 86.2772, "RA_OF_ASC_NODE": 6.7088, "ARG_OF_PERICENTER": 336.9894, "MEAN_ANOMALY": 83.6155, "EPHEMERIS_TYPE": 0, "CLASSIFICATION_TYPE": "U", "NORAD_CAT_ID": 34538, "ELEMENT_SET_NO": 999, "REV_AT_EPOCH": 87718, "BSTAR": 0.0012469, "MEAN_MOTION_DOT": 4.187e-05, "MEAN_MOTION_DDOT": 0}, "tle": {"line1": "1 34538U 97051JF  25344.10736551  .00004187  00000+0  12469-2 0  9994", "line2": "2 34538  86.2772   6.7088 0033099 336.9894  83.6155 14.42622589877184"}}, "geometry": {"type": "Point", "coordinates": [-171.78422635087188, -24.12498718230184]}}, {"type": "Feature", "properties": {"norad_id": 34540, "name": "IRIDIUM 33 DEB", "group": "iridium-33-debris", "lat": -2.6334694583683875, "lon": -51.53106004321842, "alt_km": 658.8250428419924, "timestamp": "2025-12-10T11:33:53.769434+00:00", "meta": {"OBJECT_NAME": "IRIDIUM 33 DEB", "OBJECT_ID": "1997-051JH", "EPOCH": "2025-12-09T21:03:31.895136", "MEAN_MOTION": 14.75221849, "ECCENTRICITY": 0.0015917, "INCLINATION": 86.3107, "RA_OF_ASC_NODE": 308.9152, "ARG_OF_PERICENTER": 169.314, "MEAN_ANOMALY": 220.3312, "EPHEMERIS_TYPE": 0, "CLASSIFICATION_TYPE": "U", "NORAD_CAT_ID": 34540, "ELEMENT_SET_NO": 999, "REV_AT_EPOCH": 88979, "BSTAR": 0.002569, "MEAN_MOTION_DOT": 0.00017451, "MEAN_MOTION_DDOT": 0}, "tle": {"line1": "1 34540U 97051JH  25343.87745249  .00017451  00000+0  25690-2 0  9992", "line2": "2 34540  86.3107 308.9152 0015917 169.3140 220.3312 14.75221849889795"}}, "geometry": {"type": "Point", "coordinates": [-51.53106004321842, -2.6334694583683875]}}, {"type": "Feature", "properties": {"norad_id": 34648, "name": "IRIDIUM 33 DEB", "group": "iridium-33-debris", "lat": -57.559537866536786, "lon": -82.84019790270978, "alt_km": 729.0528170177613, "timestamp": "2025-12-10T11:33:53.769444+00:00", "meta": {"OBJECT_NAME": "IRIDIUM 33 DEB", "OBJECT_ID": "1997-051JZ", "EPOCH": "2025-12-08T20:41:39.004800", "MEAN_MOTION": 14.11300262, "ECCENTRICITY": 0.01839546, "INCLINATION": 86.3913, "RA_OF_ASC_NODE": 283.5113, "ARG_OF_PERICENTER": 310.9542, "MEAN_ANOMALY": 47.5843, "EPHEMERIS_TYPE": 0, "CLASSIFICATION_TYPE": "U", "NORAD_CAT_ID": 34648, "ELEMENT_SET_NO": 999, "REV_AT_EPOCH": 84906, "BSTAR": 0.013206348, "MEAN_MOTION_DOT": 0.00028062, "MEAN_MOTION_DDOT": 0}, "tle": {"line1": "1 34648U 97051JZ  25342.86225700  .00028062  00000+0  13206-1 0  9993", "line2": "2 34648  86.3913 283.5113 0183954 310.9542  47.5843 14.11300262849062"}}, "geometry": {"type": "Point", "coordinates": [-82.84019790270978, -57.559537866536786]}}, {"type": "Feature", "properties": {"norad_id": 34651, "name": "IRIDIUM 33 DEB", "group": "iridium-33-debris", "lat": -64.40509154197665, "lon": -30.66659184414203, "alt_km": 727.7371055774811, "timestamp": "2025-12-10T11:33:53.769454+00:00", "meta": {"OBJECT_NAME": "IRIDIUM 33 DEB", "OBJECT_ID": "1997-051KC", "EPOCH": "2025-12-09T17:34:37.579296", "MEAN_MOTION": 14.25734133, "ECCENTRICITY": 0.0142017, "INCLINATION": 86.2849, "RA_OF_ASC_NODE": 141.8564, "ARG_OF_PERICENTER": 213.5102, "MEAN_ANOMALY": 145.7045, "EPHEMERIS_TYPE": 0, "CLASSIFICATION_TYPE": "U", "NORAD_CAT_ID": 34651, "ELEMENT_SET_NO": 999, "REV_AT_EPOCH": 85853, "BSTAR": 0.005267, "MEAN_MOTION_DOT": 0.0001393, "MEAN_MOTION_DDOT": 0}, "tle": {"line1": "1 34651U 97051KC  25343.73237939  .00013930  00000+0  52670-2 0  9998", "line2": "2 34651  86.2849 141.8564 0142017 213.5102 145.7045 14.25734133858534"}}, "geometry": {"type": "Point", "coordinates": [-30.66659184414203, -64.40509154197665]}}, {"type": "Feature", "properties": {"norad_id": 34652, "name": "IRIDIUM 33 DEB", "group": "iridium-33-debris", "lat": 0.6984723500607072, "lon": -18.94841864182317, "alt_km": 678.7571037956095, "timestamp": "2025-12-10T11:33:53.769465+00:00", "meta": {"OBJECT_NAME": "IRIDIUM 33 DEB", "OBJECT_ID": "1997-051KD", "EPOCH": "2025-12-09T11:37:22.959264", "MEAN_MOTION": 14.62008914, "ECCENTRICITY": 0.00262076, "INCLINATION": 86.3314, "RA_OF_ASC_NODE": 341.4507, "ARG_OF_PERICENTER": 310.1115, "MEAN_ANOMALY": 203.3524, "EPHEMERIS_TYPE": 0, "CLASSIFICATION_TYPE": "U", "NORAD_CAT_ID": 34652, "ELEMENT_SET_NO": 999, "REV_AT_EPOCH": 88436, "BSTAR": 0.0015009226, "MEAN_MOTION_DOT": 7.584e-05, "MEAN_MOTION_DDOT": 0}, "tle": {"line1": "1 34652U 97051KD  25343.48429351  .00007584  00000+0  15009-2 0  9995", "line2": "2 34652  86.3314 341.4507 0026207 310.1115 203.3524 14.62008914884363"}}, "geometry": {"type": "Point", "coordinates": [-18.94841864182317, 0.6984723500607072]}}, {"type": "Feature", "properties": {"norad_id": 34690, "name": "IRIDIUM 33 DEB", "group": "iridium-33-debris", "lat": -79.62265226771122, "lon": 17.73631206088759, "alt_km": 720.0403571061961, "timestamp": "2025-12-10T11:33:53.769475+00:00", "meta": {"OBJECT_NAME": "IRIDIUM 33 DEB", "OBJECT_ID": "1997-051KM", "EPOCH": "2025-12-09T15:10:43.095936", "MEAN_MOTION": 14.55078564, "ECCENTRICITY": 0.001121, "INCLINATION": 86.378, "RA_OF_ASC_NODE": 38.3417, "ARG_OF_PERICENTER": 38.8624, "MEAN_ANOMALY": 114.3139, "EPHEMERIS_TYPE": 0, "CLASSIFICATION_TYPE": "U", "NORAD_CAT_ID": 34690, "ELEMENT_SET_NO": 999, "REV_AT_EPOCH": 88049, "BSTAR": 0.00073259, "MEAN_MOTION_DOT": 3.182e-05, "MEAN_MOTION_DDOT": 0}, "tle": {"line1": "1 34690U 97051KM  25343.63244324  .00003182  00000+0  73259-3 0  9991", "line2": "2 34690  86.3780  38.3417 0011210  38.8624 114.3139 14.55078564880494"}}, "geometry": {"type": "Point", "coordinates": [17.73631206088759, -79.62265226771122]}}, {"type": "Feature", "properties": {"norad_id": 34693, "name": "IRIDIUM 33 DEB", "group": "iridium-33-debris", "lat": 78.94864124736952, "lon": 105.62975716832058, "alt_km": 470.3602463451298, "timestamp": "2025-12-10T11:33:53.769485+00:00", "meta": {"OBJECT_NAME": "IRIDIUM 33 DEB", "OBJECT_ID": "1997-051KQ", "EPOCH": "2025-12-09T21:06:11.394720", "MEAN_MOTION": 15.26837164, "ECCENTRICITY": 0.0014636, "INCLINATION": 86.3062, "RA_OF_ASC_NODE": 305.2443, "ARG_OF_PERICENTER": 57.3276, "MEAN_ANOMALY": 332.8894, "EPHEMERIS_TYPE": 0, "CLASSIFICATION_TYPE": "U", "NORAD_CAT_ID": 34693, "ELEMENT_SET_NO": 999, "REV_AT_EPOCH": 88871, "BSTAR": 0.0064613, "MEAN_MOTION_DOT": 0.00174516, "MEAN_MOTION_DDOT": 0}, "tle": {"line1": "1 34693U 97051KQ  25343.87929855  .00174516  00000+0  64613-2 0  9992", "line2": "2 34693  86.3062 305.2443 0014636  57.3276 332.8894 15.26837164888715"}}, "geometry": {"type": "Point", "coordinates": [105.62975716832058, 78.94864124736952]}}, {"type": "Feature", "properties": {"norad_id": 34696, "name": "IRIDIUM 33 DEB", "group": "iridium-33-debris", "lat": -22.027584732821463, "lon": 27.025285605256247, "alt_km": 732.8734813065821, "timestamp": "2025-12-10T11:33:53.769495+00:00", "meta": {"OBJECT_NAME": "IRIDIUM 33 DEB", "OBJECT_ID": "1997-051KT", "EPOCH": "2025-12-10T03:43:16.861728", "MEAN_MOTION": 14.64869835, "ECCENTRICITY": 0.0074209, "INCLINATION": 86.1846, "RA_OF_ASC_NODE": 28.7244, "ARG_OF_PERICENTER": 176.2548, "MEAN_ANOMALY": 239.1586, "EPHEMERIS_TYPE": 0, "CLASSIFICATION_TYPE": "U", "NORAD_CAT_ID": 34696, "ELEMENT_SET_NO": 999, "REV_AT_EPOCH": 86635, "BSTAR": 0.0072837, "MEAN_MOTION_DOT": 0.00040722, "MEAN_MOTION_DDOT": 0}, "tle": {"line1": "1 34696U 97051KT  25344.15505627  .00040722  00000+0  72837-2 0  9992", "line2": "2 34696  86.1846  28.7244 0074209 176.2548 239.1586 14.64869835866351"}}, "geometry": {"type": "Point", "coordinates": [27.025285605256247, -22.027584732821463]}}, {"type": "Feature", "properties": {"norad_id": 34765, "name": "IRIDIUM 33 DEB", "group": "iridium-33-debris", "lat": 66.90464399110324, "lon": 42.364344069201124, "alt_km": 760.1225080504564, "timestamp": "2025-12-10T11:33:53.769505+00:00", "meta": {"OBJECT_NAME": "IRIDIUM 33 DEB", "OBJECT_ID": "1997-051LJ", "EPOCH": "2025-12-09T21:03:36.020736", "MEAN_MOTION": 14.4045462, "ECCENTRICITY": 0.0015148, "INCLINATION": 86.3395, "RA_OF_ASC_NODE": 33.9898, "ARG_OF_PERICENTER": 221.4768, "MEAN_ANOMALY": 313.7613, "EPHEMERIS_TYPE": 0, "CLASSIFICATION_TYPE": "U", "NORAD_CAT_ID": 34765, "ELEMENT_SET_NO": 999, "REV_AT_EPOCH": 87572, "BSTAR": 0.0007057, "MEAN_MOTION_DOT": 2.264e-05, "MEAN_MOTION_DDOT": 0}, "tle": {"line1": "1 34765U 97051LJ  25343.87750024  .00002264  00000+0  70570-3 0  9992", "line2": "2 34765  86.3395  33.9898 0015148 221.4768 313.7613 14.40454620875723"}}, "geometry": {"type": "Point", "coordinates": [42.364344069201124, 66.90464399110324]}}]}